GLOBALSTAR M045 [-]     
1 25676U 99019A   23274.74668970 -.00000072  00000+0  19321-3 0  9997
2 25676  51.9961 284.9912 0000910  57.9046 113.2037 12.27016167116733
GLOBALSTAR M019 [-]     
1 25677U 99019B   23275.58381149 -.00000047  00000+0  44378-3 0  9993
2 25677  51.9904   9.1060 0001472 129.4029 243.9057 12.13842615109603
GLOBALSTAR M044 [-]     
1 25678U 99019C   23275.32786194 -.00000068  00000+0  21404-3 0  9993
2 25678  51.9947 243.1329 0006209 279.2214 259.7361 11.90222940 97013
GLOBALSTAR M042 [-]     
1 25679U 99019D   23275.02650639 -.00000048  00000+0  41465-3 0  9992
2 25679  52.0042  12.9190 0003721  97.1370  73.7161 12.22047204109016
GLOBALSTAR M025 [-]     
1 25770U 99031A   23274.92393134 -.00000028  00000+0  12051-2 0  9996
2 25770  51.9798 165.4107 0001037 136.9727 307.6185 11.22545705411606
GLOBALSTAR M049 [-]     
1 25771U 99031B   23274.93644643 -.00000044  00000+0  73054-3 0  9991
2 25771  51.9859 168.7719 0003500  46.5224 313.5863 11.12102022 47979
GLOBALSTAR M047 [-]     
1 25772U 99031C   23275.34098165 -.00000054  00000+0  43890-3 0  9996
2 25772  51.9814 224.4229 0016036 273.4243  86.4729 11.31915813 75235
GLOBALSTAR M052 [-]     
1 25773U 99031D   23274.78918119 -.00000023  00000+0  14402-2 0  9996
2 25773  51.9855 286.5595 0002316 217.9074 312.8825 11.15045888408856
